[{"OBJECT_NAME":"AEROCUBE 6B","OBJECT_ID":"2014-033AN","EPOCH":"2026-03-03T21:11:12.509952","MEAN_MOTION":14.98126967,"ECCENTRICITY":0.0037688,"INCLINATION":97.7109,"RA_OF_ASC_NODE":230.6866,"ARG_OF_PERICENTER":2.1121,"MEAN_ANOMALY":358.0253,"EPHEMERIS_TYPE":0,"CLASSIFICATION_TYPE":"U","NORAD_CAT_ID":40046,"ELEMENT_SET_NO":999,"REV_AT_EPOCH":63098,"BSTAR":0.00092344,"MEAN_MOTION_DOT":0.0001105,"MEAN_MOTION_DDOT":0},{"OBJECT_NAME":"CANX-4","OBJECT_ID":"2014-034C","EPOCH":"2026-03-04T02:29:02.520960","MEAN_MOTION":14.81045171,"ECCENTRICITY":0.0012721,"INCLINATION":98.3286,"RA_OF_ASC_NODE":294.4765,"ARG_OF_PERICENTER":354.7487,"MEAN_ANOMALY":5.3588,"EPHEMERIS_TYPE":0,"CLASSIFICATION_TYPE":"U","NORAD_CAT_ID":40055,"ELEMENT_SET_NO":999,"REV_AT_EPOCH":62897,"BSTAR":0.00021693,"MEAN_MOTION_DOT":1.627e-5,"MEAN_MOTION_DDOT":0},{"OBJECT_NAME":"CANX-5","OBJECT_ID":"2014-034D","EPOCH":"2026-03-04T02:28:31.062720","MEAN_MOTION":14.81061928,"ECCENTRICITY":0.0012729,"INCLINATION":98.3289,"RA_OF_ASC_NODE":294.5136,"ARG_OF_PERICENTER":354.9494,"MEAN_ANOMALY":5.1587,"EPHEMERIS_TYPE":0,"CLASSIFICATION_TYPE":"U","NORAD_CAT_ID":40056,"ELEMENT_SET_NO":999,"REV_AT_EPOCH":61978,"BSTAR":0.00021838,"MEAN_MOTION_DOT":1.639e-5,"MEAN_MOTION_DDOT":0},{"OBJECT_NAME":"UKUBE-1","OBJECT_ID":"2014-037F","EPOCH":"2026-03-03T12:39:59.681376","MEAN_MOTION":15.1162333,"ECCENTRICITY":0.0002618,"INCLINATION":98.422,"RA_OF_ASC_NODE":54.8631,"ARG_OF_PERICENTER":118.8048,"MEAN_ANOMALY":241.3443,"EPHEMERIS_TYPE":0,"CLASSIFICATION_TYPE":"U","NORAD_CAT_ID":40074,"ELEMENT_SET_NO":999,"REV_AT_EPOCH":63258,"BSTAR":0.0008387,"MEAN_MOTION_DOT":0.00014194,"MEAN_MOTION_DDOT":0},{"OBJECT_NAME":"BRITE-PL2 (HEWELIUSZ)","OBJECT_ID":"2014-049B","EPOCH":"2026-03-03T18:43:02.756928","MEAN_MOTION":14.94142812,"ECCENTRICITY":0.00155044,"INCLINATION":97.8981,"RA_OF_ASC_NODE":174.0764,"ARG_OF_PERICENTER":99.559,"MEAN_ANOMALY":260.7382,"EPHEMERIS_TYPE":0,"CLASSIFICATION_TYPE":"U","NORAD_CAT_ID":40119,"ELEMENT_SET_NO":999,"REV_AT_EPOCH":62570,"BSTAR":0.00034734482,"MEAN_MOTION_DOT":3.666e-5,"MEAN_MOTION_DDOT":0},{"OBJECT_NAME":"AEROCUBE 5C","OBJECT_ID":"2015-058B","EPOCH":"2026-03-03T22:37:54.628032","MEAN_MOTION":14.90793747,"ECCENTRICITY":0.0131042,"INCLINATION":64.7662,"RA_OF_ASC_NODE":229.8386,"ARG_OF_PERICENTER":104.7755,"MEAN_ANOMALY":256.7919,"EPHEMERIS_TYPE":0,"CLASSIFICATION_TYPE":"U","NORAD_CAT_ID":40965,"ELEMENT_SET_NO":999,"REV_AT_EPOCH":34996,"BSTAR":0.00051912,"MEAN_MOTION_DOT":5.864e-5,"MEAN_MOTION_DDOT":0},{"OBJECT_NAME":"AEROCUBE 7","OBJECT_ID":"2015-058C","EPOCH":"2026-03-03T21:31:46.347744","MEAN_MOTION":14.94815634,"ECCENTRICITY":0.0120993,"INCLINATION":64.7619,"RA_OF_ASC_NODE":214.3837,"ARG_OF_PERICENTER":103.9093,"MEAN_ANOMALY":257.5513,"EPHEMERIS_TYPE":0,"CLASSIFICATION_TYPE":"U","NORAD_CAT_ID":40966,"ELEMENT_SET_NO":999,"REV_AT_EPOCH":35021,"BSTAR":0.00062845,"MEAN_MOTION_DOT":7.772e-5,"MEAN_MOTION_DDOT":0},{"OBJECT_NAME":"FOX-1A (AO-85)","OBJECT_ID":"2015-058D","EPOCH":"2026-03-04T00:32:50.847072","MEAN_MOTION":14.90296117,"ECCENTRICITY":0.012918,"INCLINATION":64.7735,"RA_OF_ASC_NODE":245.6353,"ARG_OF_PERICENTER":98.1982,"MEAN_ANOMALY":263.3804,"EPHEMERIS_TYPE":0,"CLASSIFICATION_TYPE":"U","NORAD_CAT_ID":40967,"ELEMENT_SET_NO":999,"REV_AT_EPOCH":9789,"BSTAR":0.00051138,"MEAN_MOTION_DOT":5.669e-5,"MEAN_MOTION_DDOT":0},{"OBJECT_NAME":"SINOD-D 1","OBJECT_ID":"2015-058E","EPOCH":"2026-03-03T21:17:15.923904","MEAN_MOTION":14.94968554,"ECCENTRICITY":0.011753,"INCLINATION":64.7742,"RA_OF_ASC_NODE":228.4401,"ARG_OF_PERICENTER":95.6175,"MEAN_ANOMALY":265.8355,"EPHEMERIS_TYPE":0,"CLASSIFICATION_TYPE":"U","NORAD_CAT_ID":40968,"ELEMENT_SET_NO":999,"REV_AT_EPOCH":10091,"BSTAR":0.00066247,"MEAN_MOTION_DOT":8.169e-5,"MEAN_MOTION_DDOT":0},{"OBJECT_NAME":"SNAP-3 ALICE","OBJECT_ID":"2015-058G","EPOCH":"2026-03-04T01:36:13.915008","MEAN_MOTION":15.42845349,"ECCENTRICITY":0.0037438,"INCLINATION":64.7554,"RA_OF_ASC_NODE":102.2777,"ARG_OF_PERICENTER":71.072,"MEAN_ANOMALY":289.4469,"EPHEMERIS_TYPE":0,"CLASSIFICATION_TYPE":"U","NORAD_CAT_ID":40970,"ELEMENT_SET_NO":999,"REV_AT_EPOCH":10058,"BSTAR":0.0018366,"MEAN_MOTION_DOT":0.0008376,"MEAN_MOTION_DDOT":0},{"OBJECT_NAME":"LMRST-SAT","OBJECT_ID":"2015-058H","EPOCH":"2026-03-03T19:37:20.112096","MEAN_MOTION":14.89926705,"ECCENTRICITY":0.0131351,"INCLINATION":64.7743,"RA_OF_ASC_NODE":242.415,"ARG_OF_PERICENTER":100.2612,"MEAN_ANOMALY":261.3341,"EPHEMERIS_TYPE":0,"CLASSIFICATION_TYPE":"U","NORAD_CAT_ID":40971,"ELEMENT_SET_NO":999,"REV_AT_EPOCH":9785,"BSTAR":0.00051177,"MEAN_MOTION_DOT":5.648e-5,"MEAN_MOTION_DDOT":0},{"OBJECT_NAME":"SNAP-3 EDDIE","OBJECT_ID":"2015-058J","EPOCH":"2026-03-04T01:36:46.453248","MEAN_MOTION":15.43831165,"ECCENTRICITY":0.0038659,"INCLINATION":64.7479,"RA_OF_ASC_NODE":93.7017,"ARG_OF_PERICENTER":75.9742,"MEAN_ANOMALY":284.5689,"EPHEMERIS_TYPE":0,"CLASSIFICATION_TYPE":"U","NORAD_CAT_ID":40972,"ELEMENT_SET_NO":999,"REV_AT_EPOCH":10271,"BSTAR":0.0017258,"MEAN_MOTION_DOT":0.00081499,"MEAN_MOTION_DDOT":0},{"OBJECT_NAME":"PROPCUBE 3","OBJECT_ID":"2015-058K","EPOCH":"2026-03-03T20:08:45.519072","MEAN_MOTION":14.93452913,"ECCENTRICITY":0.0123899,"INCLINATION":64.7677,"RA_OF_ASC_NODE":221.4838,"ARG_OF_PERICENTER":102.0188,"MEAN_ANOMALY":259.4843,"EPHEMERIS_TYPE":0,"CLASSIFICATION_TYPE":"U","NORAD_CAT_ID":40973,"ELEMENT_SET_NO":999,"REV_AT_EPOCH":9906,"BSTAR":0.0005916,"MEAN_MOTION_DOT":7.087e-5,"MEAN_MOTION_DDOT":0},{"OBJECT_NAME":"BISONSAT","OBJECT_ID":"2015-058L","EPOCH":"2026-03-04T04:58:39.859392","MEAN_MOTION":15.13628124,"ECCENTRICITY":0.0079511,"INCLINATION":64.7607,"RA_OF_ASC_NODE":152.4157,"ARG_OF_PERICENTER":93.2847,"MEAN_ANOMALY":267.7376,"EPHEMERIS_TYPE":0,"CLASSIFICATION_TYPE":"U","NORAD_CAT_ID":40974,"ELEMENT_SET_NO":999,"REV_AT_EPOCH":9971,"BSTAR":0.00093381,"MEAN_MOTION_DOT":0.00018068,"MEAN_MOTION_DDOT":0},{"OBJECT_NAME":"SNAP-3 JIMI","OBJECT_ID":"2015-058M","EPOCH":"2026-03-03T16:51:11.206656","MEAN_MOTION":15.01023199,"ECCENTRICITY":0.01058775,"INCLINATION":64.7658,"RA_OF_ASC_NODE":193.2072,"ARG_OF_PERICENTER":99.0626,"MEAN_ANOMALY":262.249,"EPHEMERIS_TYPE":0,"CLASSIFICATION_TYPE":"U","NORAD_CAT_ID":40975,"ELEMENT_SET_NO":999,"REV_AT_EPOCH":9838,"BSTAR":0.00069189036,"MEAN_MOTION_DOT":9.828e-5,"MEAN_MOTION_DDOT":0},{"OBJECT_NAME":"PROPCUBE 1 (FLORA)","OBJECT_ID":"2015-058N","EPOCH":"2026-03-03T22:40:57.725184","MEAN_MOTION":14.88582107,"ECCENTRICITY":0.0130464,"INCLINATION":64.773,"RA_OF_ASC_NODE":261.2537,"ARG_OF_PERICENTER":102.4437,"MEAN_ANOMALY":259.1308,"EPHEMERIS_TYPE":0,"CLASSIFICATION_TYPE":"U","NORAD_CAT_ID":40976,"ELEMENT_SET_NO":999,"REV_AT_EPOCH":10059,"BSTAR":0.00047166,"MEAN_MOTION_DOT":4.994e-5,"MEAN_MOTION_DDOT":0},{"OBJECT_NAME":"SINOD-D 3","OBJECT_ID":"2015-058P","EPOCH":"2026-03-03T22:02:27.072960","MEAN_MOTION":14.93129969,"ECCENTRICITY":0.0118882,"INCLINATION":64.7711,"RA_OF_ASC_NODE":244.3245,"ARG_OF_PERICENTER":100.5272,"MEAN_ANOMALY":260.926,"EPHEMERIS_TYPE":0,"CLASSIFICATION_TYPE":"U","NORAD_CAT_ID":40977,"ELEMENT_SET_NO":999,"REV_AT_EPOCH":9903,"BSTAR":0.00063689,"MEAN_MOTION_DOT":7.486e-5,"MEAN_MOTION_DDOT":0}]
