AEROCUBE 6B             
1 40046U 14033AN  26062.88278368  .00011050  00000+0  92344-3 0  9992
2 40046  97.7109 230.6866 0037688   2.1121 358.0253 14.98126967630984
CANX-4                  
1 40055U 14034C   26063.10350140  .00001627  00000+0  21693-3 0  9996
2 40055  98.3286 294.4765 0012721 354.7487   5.3588 14.81045171628973
CANX-5                  
1 40056U 14034D   26063.10313730  .00001639  00000+0  21838-3 0  9995
2 40056  98.3289 294.5136 0012729 354.9494   5.1587 14.81061928619782
UKUBE-1                 
1 40074U 14037F   26062.52777409  .00014194  00000+0  83870-3 0  9994
2 40074  98.4220  54.8631 0002618 118.8048 241.3443 15.11623330632586
BRITE-PL2 (HEWELIUSZ)   
1 40119U 14049B   26062.77989302  .00003666  00000+0  34734-3 0  9998
2 40119  97.8981 174.0764 0015504  99.5590 260.7382 14.94142812625704
AEROCUBE 5C             
1 40965U 15058B   26062.94299338  .00005864  00000+0  51912-3 0  9999
2 40965  64.7662 229.8386 0131042 104.7755 256.7919 14.90793747349966
AEROCUBE 7              
1 40966U 15058C   26062.89706421  .00007772  00000+0  62845-3 0  9997
2 40966  64.7619 214.3837 0120993 103.9093 257.5513 14.94815634350211
FOX-1A (AO-85)          
1 40967U 15058D   26063.02281073  .00005669  00000+0  51138-3 0  9991
2 40967  64.7735 245.6353 0129180  98.1982 263.3804 14.90296117 97895
SINOD-D 1               
1 40968U 15058E   26062.88698986  .00008169  00000+0  66247-3 0  9995
2 40968  64.7742 228.4401 0117530  95.6175 265.8355 14.94968554100910
SNAP-3 ALICE            
1 40970U 15058G   26063.06682772  .00083760  00000+0  18366-2 0  9993
2 40970  64.7554 102.2777 0037438  71.0720 289.4469 15.42845349100582
LMRST-SAT               
1 40971U 15058H   26062.81759389  .00005648  00000+0  51177-3 0  9992
2 40971  64.7743 242.4150 0131351 100.2612 261.3341 14.89926705 97858
SNAP-3 EDDIE            
1 40972U 15058J   26063.06720432  .00081499  00000+0  17258-2 0  9997
2 40972  64.7479  93.7017 0038659  75.9742 284.5689 15.43831165102713
PROPCUBE 3              
1 40973U 15058K   26062.83941573  .00007087  00000+0  59160-3 0  9993
2 40973  64.7677 221.4838 0123899 102.0188 259.4843 14.93452913 99062
BISONSAT                
1 40974U 15058L   26063.20740578  .00018068  00000+0  93381-3 0  9992
2 40974  64.7607 152.4157 0079511  93.2847 267.7376 15.13628124 99714
SNAP-3 JIMI             
1 40975U 15058M   26062.70221304  .00009828  00000+0  69189-3 0  9991
2 40975  64.7658 193.2072 0105877  99.0626 262.2490 15.01023199 98381
PROPCUBE 1 (FLORA)      
1 40976U 15058N   26062.94511256  .00004994  00000+0  47166-3 0  9996
2 40976  64.7730 261.2537 0130464 102.4437 259.1308 14.88582107100597
SINOD-D 3               
1 40977U 15058P   26062.91836890  .00007486  00000+0  63689-3 0  9995
2 40977  64.7711 244.3245 0118882 100.5272 260.9260 14.93129969 99033
